WORLDVIEW-3 (WV-3)      
1 40115U 14048A   26198.28589225  .00000337  00000+0  45743-4 0  9994
2 40115  97.8555 272.7020 0001458 152.7669 207.3622 14.85065993646374
